{"type": "FeatureCollection", "features": [ {"type": "Feature", "properties": {"norad_id": 34031, "name": "COSMOS 2251 DEB", "group": "cosmos-2251-debris", "lat": -43.425391996467, "lon": 128.70970274142178, "alt_km": 690.2122959103026, "timestamp": "2025-12-08T03:50:07.389626+00:00", "meta": {"OBJECT_NAME": "COSMOS 2251 DEB", "OBJECT_ID": "1993-036HS", "EPOCH": "2025-12-07T06:58:38.511264", "MEAN_MOTION": 14.59584919, "ECCENTRICITY": 0.00229913, "INCLINATION": 74.0123, "RA_OF_ASC_NODE": 146.114, "ARG_OF_PERICENTER": 266.7048, "MEAN_ANOMALY": 162.7694, "EPHEMERIS_TYPE": 0, "CLASSIFICATION_TYPE": "U", "NORAD_CAT_ID": 34031, "ELEMENT_SET_NO": 999, "REV_AT_EPOCH": 88486, "BSTAR": 0.0020478717, "MEAN_MOTION_DOT": 9.759e-05, "MEAN_MOTION_DDOT": 0}, "tle": {"line1": "1 34031U 93036HS  25341.29072351  .00009759  00000+0  20479-2 0  9999", "line2": "2 34031  74.0123 146.1140 0022991 266.7048 162.7694 14.59584919884867"}}, "geometry": {"type": "Point", "coordinates": [128.70970274142178, -43.425391996467]}}, {"type": "Feature", "properties": {"norad_id": 34035, "name": "COSMOS 2251 DEB", "group": "cosmos-2251-debris", "lat": -60.242699195362825, "lon": -152.26662315310767, "alt_km": 739.9762417600678, "timestamp": "2025-12-08T03:50:07.389636+00:00", "meta": {"OBJECT_NAME": "COSMOS 2251 DEB", "OBJECT_ID": "1993-036HW", "EPOCH": "2025-12-07T04:05:18.475008", "MEAN_MOTION": 14.5183497, "ECCENTRICITY": 0.00443272, "INCLINATION": 74.0655, "RA_OF_ASC_NODE": 359.6116, "ARG_OF_PERICENTER": 2.4001, "MEAN_ANOMALY": 113.1315, "EPHEMERIS_TYPE": 0, "CLASSIFICATION_TYPE": "U", "NORAD_CAT_ID": 34035, "ELEMENT_SET_NO": 999, "REV_AT_EPOCH": 87885, "BSTAR": 0.0023209456, "MEAN_MOTION_DOT": 9.449e-05, "MEAN_MOTION_DDOT": 0}, "tle": {"line1": "1 34035U 93036HW  25341.17035272  .00009449  00000+0  23209-2 0  9991", "line2": "2 34035  74.0655 359.6116 0044327   2.4001 113.1315 14.51834970878855"}}, "geometry": {"type": "Point", "coordinates": [-152.26662315310767, -60.242699195362825]}}, {"type": "Feature", "properties": {"norad_id": 34036, "name": "COSMOS 2251 DEB", "group": "cosmos-2251-debris", "lat": 19.04421183933113, "lon": -27.170165636480103, "alt_km": 576.0578035753115, "timestamp": "2025-12-08T03:50:07.389646+00:00", "meta": {"OBJECT_NAME": "COSMOS 2251 DEB", "OBJECT_ID": "1993-036HX", "EPOCH": "2025-12-07T06:14:00.947616", "MEAN_MOTION": 14.94298892, "ECCENTRICITY": 0.00137777, "INCLINATION": 74.0199, "RA_OF_ASC_NODE": 160.321, "ARG_OF_PERICENTER": 194.9965, "MEAN_ANOMALY": 165.0812, "EPHEMERIS_TYPE": 0, "CLASSIFICATION_TYPE": "U", "NORAD_CAT_ID": 34036, "ELEMENT_SET_NO": 999, "REV_AT_EPOCH": 88488, "BSTAR": 0.0057201492, "MEAN_MOTION_DOT": 0.00062085, "MEAN_MOTION_DDOT": 0}, "tle": {"line1": "1 34036U 93036HX  25341.25973319  .00062085  00000+0  57201-2 0  9998", "line2": "2 34036  74.0199 160.3210 0013777 194.9965 165.0812 14.94298892884884"}}, "geometry": {"type": "Point", "coordinates": [-27.170165636480103, 19.04421183933113]}}, {"type": "Feature", "properties": {"norad_id": 34037, "name": "COSMOS 2251 DEB", "group": "cosmos-2251-debris", "lat": 48.714758750328194, "lon": -140.17879575271556, "alt_km": 735.977705648439, "timestamp": "2025-12-08T03:50:07.389656+00:00", "meta": {"OBJECT_NAME": "COSMOS 2251 DEB", "OBJECT_ID": "1993-036HY", "EPOCH": "2025-12-06T22:47:28.689504", "MEAN_MOTION": 14.34641301, "ECCENTRICITY": 0.005223, "INCLINATION": 74.0526, "RA_OF_ASC_NODE": 61.0395, "ARG_OF_PERICENTER": 112.81, "MEAN_ANOMALY": 247.8581, "EPHEMERIS_TYPE": 0, "CLASSIFICATION_TYPE": "U", "NORAD_CAT_ID": 34037, "ELEMENT_SET_NO": 999, "REV_AT_EPOCH": 87634, "BSTAR": 0.00089835803, "MEAN_MOTION_DOT": 2.555e-05, "MEAN_MOTION_DDOT": 0}, "tle": {"line1": "1 34037U 93036HY  25340.94963761  .00002555  00000+0  89836-3 0  9990", "line2": "2 34037  74.0526  61.0395 0052230 112.8100 247.8581 14.34641301876342"}}, "geometry": {"type": "Point", "coordinates": [-140.17879575271556, 48.714758750328194]}}, {"type": "Feature", "properties": {"norad_id": 34040, "name": "COSMOS 2251 DEB", "group": "cosmos-2251-debris", "lat": 28.904243107223976, "lon": 82.57292821108935, "alt_km": 750.6792337169863, "timestamp": "2025-12-08T03:50:07.389666+00:00", "meta": {"OBJECT_NAME": "COSMOS 2251 DEB", "OBJECT_ID": "1993-036JB", "EPOCH": "2025-12-06T23:37:30.853632", "MEAN_MOTION": 13.68365187, "ECCENTRICITY": 0.03428789, "INCLINATION": 73.9559, "RA_OF_ASC_NODE": 75.3727, "ARG_OF_PERICENTER": 29.9322, "MEAN_ANOMALY": 332.0918, "EPHEMERIS_TYPE": 0, "CLASSIFICATION_TYPE": "U", "NORAD_CAT_ID": 34040, "ELEMENT_SET_NO": 999, "REV_AT_EPOCH": 83521, "BSTAR": 0.00057142181, "MEAN_MOTION_DOT": 7.14e-06, "MEAN_MOTION_DDOT": 0}, "tle": {"line1": "1 34040U 93036JB  25340.98438488  .00000714  00000+0  57142-3 0  9991", "line2": "2 34040  73.9559  75.3727 0342878  29.9322 332.0918 13.68365187835214"}}, "geometry": {"type": "Point", "coordinates": [82.57292821108935, 28.904243107223976]}}, {"type": "Feature", "properties": {"norad_id": 34045, "name": "COSMOS 2251 DEB", "group": "cosmos-2251-debris", "lat": -2.857755763094059, "lon": 140.03155944024033, "alt_km": 794.8326974887323, "timestamp": "2025-12-08T03:50:07.389676+00:00", "meta": {"OBJECT_NAME": "COSMOS 2251 DEB", "OBJECT_ID": "1993-036JG", "EPOCH": "2025-12-07T05:18:11.820096", "MEAN_MOTION": 14.34064062, "ECCENTRICITY": 0.00254652, "INCLINATION": 74.0387, "RA_OF_ASC_NODE": 320.9301, "ARG_OF_PERICENTER": 46.0528, "MEAN_ANOMALY": 331.6843, "EPHEMERIS_TYPE": 0, "CLASSIFICATION_TYPE": "U", "NORAD_CAT_ID": 34045, "ELEMENT_SET_NO": 999, "REV_AT_EPOCH": 87954, "BSTAR": 0.00017766273, "MEAN_MOTION_DOT": 4.72e-06, "MEAN_MOTION_DDOT": 0}, "tle": {"line1": "1 34045U 93036JG  25341.22097014  .00000472  00000+0  17766-3 0  9999", "line2": "2 34045  74.0387 320.9301 0025465  46.0528 331.6843 14.34064062879543"}}, "geometry": {"type": "Point", "coordinates": [140.03155944024033, -2.857755763094059]}}, {"type": "Feature", "properties": {"norad_id": 34046, "name": "COSMOS 2251 DEB", "group": "cosmos-2251-debris", "lat": -31.62205693146854, "lon": 8.87608829175728, "alt_km": 781.6316042263361, "timestamp": "2025-12-08T03:50:07.389687+00:00", "meta": {"OBJECT_NAME": "COSMOS 2251 DEB", "OBJECT_ID": "1993-036JH", "EPOCH": "2025-12-07T03:13:46.098912", "MEAN_MOTION": 14.4640505, "ECCENTRICITY": 0.00746887, "INCLINATION": 74.0396, "RA_OF_ASC_NODE": 20.9385, "ARG_OF_PERICENTER": 106.0316, "MEAN_ANOMALY": 285.2353, "EPHEMERIS_TYPE": 0, "CLASSIFICATION_TYPE": "U", "NORAD_CAT_ID": 34046, "ELEMENT_SET_NO": 999, "REV_AT_EPOCH": 87745, "BSTAR": 0.0017518919, "MEAN_MOTION_DOT": 6.494e-05, "MEAN_MOTION_DDOT": 0}, "tle": {"line1": "1 34046U 93036JH  25341.13456133  .00006494  00000+0  17519-2 0  9996", "line2": "2 34046  74.0396  20.9385 0074688 106.0316 285.2353 14.46405050877453"}}, "geometry": {"type": "Point", "coordinates": [8.87608829175728, -31.62205693146854]}}, {"type": "Feature", "properties": {"norad_id": 34050, "name": "COSMOS 2251 DEB", "group": "cosmos-2251-debris", "lat": -47.52406558491902, "lon": -0.24315071882015846, "alt_km": 1019.2526664977004, "timestamp": "2025-12-08T03:50:07.389697+00:00", "meta": {"OBJECT_NAME": "COSMOS 2251 DEB", "OBJECT_ID": "1993-036JM", "EPOCH": "2025-12-06T09:09:45.893952", "MEAN_MOTION": 13.96165357, "ECCENTRICITY": 0.02146149, "INCLINATION": 74.0887, "RA_OF_ASC_NODE": 20.9585, "ARG_OF_PERICENTER": 86.9094, "MEAN_ANOMALY": 291.642, "EPHEMERIS_TYPE": 0, "CLASSIFICATION_TYPE": "U", "NORAD_CAT_ID": 34050, "ELEMENT_SET_NO": 999, "REV_AT_EPOCH": 85343, "BSTAR": 0.00092583138, "MEAN_MOTION_DOT": 1.522e-05, "MEAN_MOTION_DDOT": 0}, "tle": {"line1": "1 34050U 93036JM  25340.38178118  .00001522  00000+0  92583-3 0  9993", "line2": "2 34050  74.0887  20.9585 0214614  86.9094 291.6420 13.96165357853434"}}, "geometry": {"type": "Point", "coordinates": [-0.24315071882015846, -47.52406558491902]}}, {"type": "Feature", "properties": {"norad_id": 34053, "name": "COSMOS 2251 DEB", "group": "cosmos-2251-debris", "lat": -24.365448604236214, "lon": -117.99183356989575, "alt_km": 933.0386210756851, "timestamp": "2025-12-08T03:50:07.389707+00:00", "meta": {"OBJECT_NAME": "COSMOS 2251 DEB", "OBJECT_ID": "1993-036JQ", "EPOCH": "2025-12-06T19:55:24.201408", "MEAN_MOTION": 13.49147066, "ECCENTRICITY": 0.04218713, "INCLINATION": 73.8444, "RA_OF_ASC_NODE": 251.6934, "ARG_OF_PERICENTER": 41.2312, "MEAN_ANOMALY": 321.9855, "EPHEMERIS_TYPE": 0, "CLASSIFICATION_TYPE": "U", "NORAD_CAT_ID": 34053, "ELEMENT_SET_NO": 999, "REV_AT_EPOCH": 82604, "BSTAR": 0.0013589644, "MEAN_MOTION_DOT": 1.459e-05, "MEAN_MOTION_DDOT": 0}, "tle": {"line1": "1 34053U 93036JQ  25340.83014122  .00001459  00000+0  13590-2 0  9999", "line2": "2 34053  73.8444 251.6934 0421871  41.2312 321.9855 13.49147066826047"}}, "geometry": {"type": "Point", "coordinates": [-117.99183356989575, -24.365448604236214]}}, {"type": "Feature", "properties": {"norad_id": 34056, "name": "COSMOS 2251 DEB", "group": "cosmos-2251-debris", "lat": 51.612466366125936, "lon": 105.71311036388698, "alt_km": 800.2082986448013, "timestamp": "2025-12-08T03:50:07.389717+00:00", "meta": {"OBJECT_NAME": "COSMOS 2251 DEB", "OBJECT_ID": "1993-036JT", "EPOCH": "2025-12-07T01:20:40.806240", "MEAN_MOTION": 14.20517621, "ECCENTRICITY": 0.01243625, "INCLINATION": 74.0601, "RA_OF_ASC_NODE": 86.54, "ARG_OF_PERICENTER": 135.8733, "MEAN_ANOMALY": 37.8359, "EPHEMERIS_TYPE": 0, "CLASSIFICATION_TYPE": "U", "NORAD_CAT_ID": 34056, "ELEMENT_SET_NO": 999, "REV_AT_EPOCH": 86330, "BSTAR": 0.0018300204, "MEAN_MOTION_DOT": 4.227e-05, "MEAN_MOTION_DDOT": 0}, "tle": {"line1": "1 34056U 93036JT  25341.05602785  .00004227  00000+0  18300-2 0  9995", "line2": "2 34056  74.0601  86.5400 0124362 135.8733  37.8359 14.20517621863303"}}, "geometry": {"type": "Point", "coordinates": [105.71311036388698, 51.612466366125936]}}]}